H1 CPF  1  SGF 2022  1  4  2  5041 larets    
H2  0304206 5557    27944 2022  1  3  0  0  0 2022  1  8 23 57  0   180 1 1  0 0 0
H9
10 0 59585  73080.00000  0    -49005.566   6174494.813  -3440911.907
10 0 59585  73260.00000  0    253662.874   6703607.718  -2219450.107
10 0 59585  73440.00000  0    557695.786   6981084.560   -916742.896
10 0 59585  73620.00000  0    845262.028   6996590.430    419574.227
10 0 59585  73800.00000  0   1098966.271   6749865.335   1740470.034
10 0 59585  73980.00000  0   1302765.414   6250762.790   2997370.820
10 0 59585  74160.00000  0   1442827.434   5518863.678   4144007.057
10 0 59585  74340.00000  0   1508292.736   4582680.742   5138173.579
10 0 59585  74520.00000  0   1491892.662   3478486.869   5943322.325
10 0 59585  74700.00000  0   1390392.344   2248839.662   6529906.649
10 0 59585  74880.00000  0   1204843.025    940885.123   6876450.438
10 0 59585  75060.00000  0    940631.564   -395495.108   6970307.743
10 0 59585  75240.00000  0    607326.279  -1709610.316   6808100.640
10 0 59585  75420.00000  0    218322.703  -2951903.270   6395833.336
10 0 59585  75600.00000  0   -209699.207  -4075841.496   5748670.261
10 0 59585  75780.00000  0   -657481.714  -5039681.485   4890384.680
10 0 59585  75960.00000  0  -1104034.315  -5808052.524   3852509.105
10 0 59585  76140.00000  0  -1527591.178  -6353309.635   2673187.985
10 0 59585  76320.00000  0  -1906634.264  -6656576.551   1395763.181
10 0 59585  76500.00000  0  -2220933.277  -6708432.443     67150.091
10 0 59585  76680.00000  0  -2452544.645  -6509202.392  -1263934.547
10 0 59585  76860.00000  0  -2586716.665  -6068839.077  -2548808.213
10 0 59585  77040.00000  0  -2612658.615  -5406407.319  -3740639.663
10 0 59585  77220.00000  0  -2524133.562  -4549202.008  -4796167.470
10 0 59585  77400.00000  0  -2319848.071  -3531557.266  -5677243.813
10 0 59585  77580.00000  0  -2003629.160  -2393421.108  -6352155.076
10 0 59585  77760.00000  0  -1584385.337  -1178761.867  -6796689.111
10 0 59585  77940.00000  0  -1075856.210     66126.076  -6994924.278
10 0 59585  78120.00000  0   -496166.805   1294351.263  -6939735.916
10 0 59585  78300.00000  0    132801.936   2460137.780  -6633025.779
10 0 59585  78480.00000  0    786208.807   3520481.737  -6085675.292
10 0 59585  78660.00000  0   1437200.246   4436712.571  -5317216.024
10 0 59585  78840.00000  0   2057980.506   5175908.150  -4355211.433
10 0 59585  79020.00000  0   2620971.621   5712119.518  -3234353.334
10 0 59585  79200.00000  0   3100018.650   6027349.624  -1995279.832
10 0 59585  79380.00000  0   3471589.607   6112237.055   -683141.255
10 0 59585  79560.00000  0   3715907.162   5966397.682    654046.936
10 0 59585  79740.00000  0   3817947.969   5598392.234   1967196.327
10 0 59585  79920.00000  0   3768256.159   5025316.909   3208001.452
10 0 59585  80100.00000  0   3563522.473   4272032.165   4330781.166
10 0 59585  80280.00000  0   3206895.966   3370064.049   5294212.885
10 0 59585  80460.00000  0   2708005.718   2356243.553   6062886.469
10 0 59585  80640.00000  0   2082701.504   1271153.349   6608604.142
10 0 59585  80820.00000  0   1352531.808    157462.009   6911396.249
10 0 59585  81000.00000  0    543975.729   -941779.411   6960223.997
10 0 59585  81180.00000  0   -312537.124  -1984818.130   6753363.648
10 0 59585  81360.00000  0  -1183788.143  -2932801.930   6298456.783
10 0 59585  81540.00000  0  -2035066.270  -3751240.513   5612226.492
10 0 59585  81720.00000  0  -2831554.692  -4411279.151   4719881.286
10 0 59585  81900.00000  0  -3539773.496  -4890748.589   3654211.666
10 0 59585  82080.00000  0  -4129008.070  -5174940.007   2454386.653
10 0 59585  82260.00000  0  -4572649.896  -5257069.232   1164498.241
10 0 59585  82440.00000  0  -4849393.265  -5138409.017   -168092.233
10 0 59585  82620.00000  0  -4944225.048  -4828079.718  -1494539.998
10 0 59585  82800.00000  0  -4849153.891  -4342509.166  -2766358.136
10 0 59585  82980.00000  0  -4563638.328  -3704590.153  -3937225.077
10 0 59585  83160.00000  0  -4094701.386  -2942592.330  -4964673.361
10 0 59585  83340.00000  0  -3456737.545  -2088892.809  -5811598.248
10 0 59585  83520.00000  0  -2671030.014  -1178589.970  -6447536.715
10 0 59585  83700.00000  0  -1765007.750   -248065.211  -6849686.110
10 0 59585  83880.00000  0   -771275.052    666447.574  -7003641.998
10 0 59585  84060.00000  0    273543.132   1530232.315  -6903854.910
10 0 59585  84240.00000  0   1330109.417   2311366.708  -6553813.535
10 0 59585  84420.00000  0   2357809.872   2981873.537  -5965951.530
10 0 59585  84600.00000  0   3316279.169   3518715.471  -5161264.274
10 0 59585  84780.00000  0   4166965.511   3904599.863  -4168640.120
10 0 59585  84960.00000  0   4874689.577   4128569.353  -3023909.042
10 0 59585  85140.00000  0   5409132.724   4186344.624  -1768612.982
10 0 59585  85320.00000  0   5746179.189   4080396.424   -448529.383
10 0 59585  85500.00000  0   5869042.303   3819734.548    888004.081
10 0 59585  85680.00000  0   5769109.781   3419416.123   2191897.017
10 0 59585  85860.00000  0   5446453.132   2899789.825   3415169.345
10 0 59585  86040.00000  0   4909964.852   2285516.171   4512781.964
10 0 59585  86220.00000  0   4177113.806   1604413.062   5444343.460
10 0 59586      0.00000  0   3273341.622    886194.416   6175621.491
10 0 59586    180.00000  0   2231122.824    161162.361   6679800.064
10 0 59586    360.00000  0   1088749.045   -541079.033   6938437.182
10 0 59586    540.00000  0   -111113.719  -1192838.061   6942117.227
10 0 59586    720.00000  0  -1323047.182  -1769434.736   6690772.718
10 0 59586    900.00000  0  -2500616.522  -2250142.193   6193671.272
10 0 59586   1080.00000  0  -3598158.681  -2618936.665   5469082.035
10 0 59586   1260.00000  0  -4572579.828  -2865041.494   4543628.983
10 0 59586   1440.00000  0  -5385086.235  -2983240.009   3451322.805
10 0 59586   1620.00000  0  -6002767.787  -2973940.507   2232311.532
10 0 59586   1800.00000  0  -6399971.427  -2842996.562    931391.022
10 0 59586   1980.00000  0  -6559392.862  -2601288.285   -403680.288
10 0 59586   2160.00000  0  -6472825.145  -2264081.093  -1723984.999
10 0 59586   2340.00000  0  -6141524.285  -1850199.933  -2981288.867
10 0 59586   2520.00000  0  -5576177.097  -1381066.274  -4129830.214
10 0 59586   2700.00000  0  -4796488.670   -879652.086  -5127982.136
10 0 59586   2880.00000  0  -3830419.631   -369403.824  -5939725.852
10 0 59586   3060.00000  0  -2713117.405    126810.746  -6535885.213
10 0 59586   3240.00000  0  -1485601.613    587684.971  -6895092.585
10 0 59586   3420.00000  0   -193259.701    994346.620  -7004478.030
10 0 59586   3600.00000  0   1115793.863   1331098.116  -6860078.320
10 0 59586   3780.00000  0   2392452.733   1586002.688  -6466974.635
10 0 59586   3960.00000  0   3588413.390   1751303.187  -5839146.962
10 0 59586   4140.00000  0   4657970.525   1823657.735  -4999038.059
10 0 59586   4320.00000  0   5559762.592   1804185.873  -3976835.936
10 0 59586   4500.00000  0   6258409.208   1698321.041  -2809470.395
10 0 59586   4680.00000  0   6725967.239   1515469.330  -1539341.442
10 0 59586   4860.00000  0   6943135.565   1268485.414   -212805.372
10 0 59586   5040.00000  0   6900130.325    972983.564   1121531.982
10 0 59586   5220.00000  0   6597174.788    646518.427   2414638.843
10 0 59586   5400.00000  0   6044573.184    307674.249   3618922.182
10 0 59586   5580.00000  0   5262349.855    -24888.589   4690042.009
10 0 59586   5760.00000  0   4279478.776   -333374.033   5588587.706
10 0 59586   5940.00000  0   3132746.148   -601732.247   6281549.233
10 0 59586   6120.00000  0   1865305.720   -816435.616   6743522.261
10 0 59586   6300.00000  0    525001.583   -967115.823   6957618.757
10 0 59586   6480.00000  0   -837479.754  -1047037.485   6916059.038
10 0 59586   6660.00000  0  -2170550.987  -1053388.941   6620430.810
10 0 59586   6840.00000  0  -3423689.961   -987379.444   6081621.307
10 0 59586   7020.00000  0  -4549371.741   -854140.307   5319431.056
10 0 59586   7200.00000  0  -5504908.172   -662437.943   4361867.121
10 0 59586   7380.00000  0  -6254114.844   -424207.727   3244123.731
10 0 59586   7560.00000  0  -6768730.865   -153927.799   2007286.386
10 0 59586   7740.00000  0  -7029534.226    132138.314    696802.994
10 0 59586   7920.00000  0  -7027090.454    416791.214   -639228.738
10 0 59586   8100.00000  0  -6762089.764    682793.384  -1951878.700
10 0 59586   8280.00000  0  -6245260.384    913767.428  -3193218.620
10 0 59586   8460.00000  0  -5496875.114   1095048.309  -4318097.696
10 0 59586   8640.00000  0  -4545872.595   1214446.243  -5285780.067
10 0 59586   8820.00000  0  -3428659.033   1262882.728  -6061375.230
10 0 59586   9000.00000  0  -2187660.692   1234872.828  -6617023.875
10 0 59586   9180.00000  0   -869694.306   1128838.259  -6932817.201
10 0 59586   9360.00000  0    475781.220    947244.524  -6997435.370
10 0 59586   9540.00000  0   1798469.540    696557.998  -6808510.084
10 0 59586   9720.00000  0   3049062.538    387024.001  -6372714.058
10 0 59586   9900.00000  0   4181036.032     32270.497  -5705560.794
10 0 59586  10080.00000  0   5152360.077   -351252.836  -4830919.346
10 0 59586  10260.00000  0   5927078.517   -744984.256  -3780247.421
10 0 59586  10440.00000  0   6476697.977  -1129086.173  -2591539.032
10 0 59586  10620.00000  0   6781319.848  -1483376.726  -1308006.655
10 0 59586  10800.00000  0   6830454.170  -1788313.819     23470.301
10 0 59586  10980.00000  0   6623460.882  -2025982.421   1354075.655
10 0 59586  11160.00000  0   6169582.889  -2181032.828   2634895.707
10 0 59586  11340.00000  0   5487557.670  -2241517.039   3818782.388
10 0 59586  11520.00000  0   4604822.807  -2199574.721   4862148.681
10 0 59586  11700.00000  0   3556365.444  -2051932.296   5726611.516
10 0 59586  11880.00000  0   2383276.202  -1800192.209   6380422.107
10 0 59586  12060.00000  0   1131077.529  -1450898.464   6799622.459
99
